      2.10          N: GNSS NAV DATA                        RINEX VERSION / TYPE
fic2rin                                 08/20/2023 00:17:57 PGM / RUN BY / DATE
                                                            END OF HEADER
29 23  8 19 22  0  0.0 -.608066096902D-03 -.682121026330D-12  .000000000000D+00
     .220000000000D+02 -.426562500000D+02  .403766818509D-08  .285856224975D+01
    -.217370688915D-05  .262961385306D-02  .910647213459D-05  .515372478294D+04
     .597600000000D+06 -.186264514923D-08 -.100147613470D+00  .149011611938D-07
     .975624735235D+00  .213812500000D+03  .252701675132D+01 -.779282460242D-08
    -.510378402166D-09  .100000000000D+01  .227500000000D+04  .000000000000D+00
     .240000000000D+01  .000000000000D+00 -.977888703346D-08  .220000000000D+02
     .590400000000D+06  .400000000000D+01
32 23  8 19 22  0  0.0 -.543545931578D-03 -.670752342558D-11  .000000000000D+00
     .120000000000D+02 -.821250000000D+02  .469590988921D-08 -.274941939439D+01
    -.424124300480D-05  .697910564486D-02  .781007111073D-05  .515378313446D+04
     .597600000000D+06  .160187482834D-06  .295617803332D+01 -.109896063805D-06
     .960557033045D+00  .226593750000D+03 -.220647519248D+01 -.810962351266D-08
    -.311084386485D-09  .100000000000D+01  .227500000000D+04  .000000000000D+00
     .240000000000D+01  .000000000000D+00  .465661287308D-09  .120000000000D+02
     .590400000000D+06  .400000000000D+01
16 23  8 19 22  0  0.0 -.466015655547D-03  .511590769747D-11  .000000000000D+00
     .280000000000D+02  .233437500000D+02  .476234122777D-08 -.240652559569D+01
     .122934579849D-05  .133300753077D-01  .425986945629D-05  .515363863754D+04
     .597600000000D+06  .109896063805D-06 -.113552073333D+01 -.134110450745D-06
     .963923681530D+00  .298843750000D+03  .791361437346D+00 -.813998192006D-08
     .114647632677D-09  .100000000000D+01  .227500000000D+04  .000000000000D+00
     .240000000000D+01  .000000000000D+00 -.102445483208D-07  .280000000000D+02
     .590400000000D+06  .400000000000D+01
9  23  8 19 22  0  0.0 -.822888687253D-04  .989075488178D-11  .000000000000D+00
     .280000000000D+02 -.827812500000D+02  .487127433670D-08 -.283911402955D+01
    -.422075390816D-05  .263103935868D-02  .694021582603D-05  .515356154442D+04
     .597600000000D+06  .428408384323D-07  .294266168846D+01  .502914190292D-07
     .956974422740D+00  .244062500000D+03  .193481454845D+01 -.823177145775D-08
    -.231795369493D-09  .100000000000D+01  .227500000000D+04  .000000000000D+00
     .240000000000D+01  .000000000000D+00  .931322574615D-09  .280000000000D+02
     .590400000000D+06  .400000000000D+01
13 23  8 19 22  0  0.0  .562180299312D-03  .477484718431D-11  .000000000000D+00
     .170000000000D+02 -.743750000000D+02  .431446542909D-08  .254559530329D+01
    -.391341745853D-05  .737318326719D-02  .903941690922D-05  .515367638206D+04
     .597600000000D+06 -.577419996262D-07  .310418873195D+01 -.111758708954D-06
     .970588553435D+00  .211218750000D+03  .925291526060D+00 -.780675375406D-08
    -.264653881039D-09  .100000000000D+01  .227500000000D+04  .000000000000D+00
     .240000000000D+01  .000000000000D+00 -.116415321827D-07  .170000000000D+02
     .590400000000D+06  .400000000000D+01
8  23  8 19 22  0  0.0 -.138014554977D-03 -.193267624127D-11  .000000000000D+00
     .166000000000D+03 -.515312500000D+02  .451697386438D-08  .290653591396D+01
    -.271201133728D-05  .855559413321D-02  .758469104767D-05  .515373773193D+04
     .597600000000D+06 -.447034835815D-07 -.204724442566D+00 -.298023223877D-07
     .957635794838D+00  .232343750000D+03  .271503244286D+00 -.807140763510D-08
    -.471448209139D-09  .100000000000D+01  .227500000000D+04  .000000000000D+00
     .240000000000D+01  .000000000000D+00  .512227416039D-08  .166000000000D+03
     .590400000000D+06  .400000000000D+01
6  23  8 19 22  0  0.0  .563913956285D-03 -.545696821064D-11  .000000000000D+00
     .880000000000D+02  .460000000000D+02  .351371778902D-08  .948882557636D+00
     .252947211266D-05  .270709255710D-02  .102557241917D-04  .515372956276D+04
     .597600000000D+06  .596046447754D-07  .880852713725D+00 -.875443220139D-07
     .989481533318D+00  .195250000000D+03 -.783447713239D+00 -.762496046735D-08
     .305012705003D-09  .100000000000D+01  .227500000000D+04  .000000000000D+00
     .240000000000D+01  .000000000000D+00  .372529029846D-08  .880000000000D+02
     .590400000000D+06  .400000000000D+01
27 23  8 19 22  0  0.0 -.249622389674D-04 -.670752342558D-11  .000000000000D+00
     .660000000000D+02 -.548750000000D+02  .424839124826D-08  .296402846135D+01
    -.286847352982D-05  .115763193462D-01  .796839594841D-05  .515366785812D+04
     .597600000000D+06  .540167093277D-07 -.180682481122D+00 -.931322574615D-07
     .966575377081D+00  .226687500000D+03  .742873032238D+00 -.785139847083D-08
    -.446090010011D-09  .100000000000D+01  .227500000000D+04  .000000000000D+00
     .240000000000D+01  .000000000000D+00  .139698386192D-08  .660000000000D+02
     .590400000000D+06  .400000000000D+01
30 23  8 19 22  0  0.0 -.495080370456D-03  .318323145621D-11  .000000000000D+00
     .810000000000D+02  .225000000000D+02  .507235414105D-08 -.245377692509D-01
     .111572444439D-05  .658497889526D-02  .104941427708D-04  .515378322983D+04
     .597600000000D+06 -.111758708954D-07 -.226424350578D+01  .428408384323D-07
     .935571509920D+00  .161250000000D+03 -.254532868647D+01 -.834677624816D-08
     .110004582132D-09  .100000000000D+01  .227500000000D+04  .000000000000D+00
     .240000000000D+01  .000000000000D+00  .372529029846D-08  .810000000000D+02
     .590400000000D+06  .400000000000D+01
19 23  8 19 22  0  0.0  .359938479960D-03  .511590769747D-11  .000000000000D+00
     .410000000000D+02 -.456250000000D+02  .402231040252D-08 -.127587982913D+01
    -.234134495258D-05  .946636742447D-02  .922940671444D-05  .515364227104D+04
     .597600000000D+06 -.167638063431D-06 -.699761364555D-01 -.391155481339D-07
     .972437485856D+00  .209562500000D+03  .239025208620D+01 -.793318759196D-08
    -.271439877989D-09  .100000000000D+01  .227500000000D+04  .000000000000D+00
     .240000000000D+01  .000000000000D+00 -.153668224812D-07  .410000000000D+02
     .590400000000D+06  .400000000000D+01
10 23  8 19 22  0  0.0 -.499533489347D-04 -.147792889038D-11  .000000000000D+00
     .870000000000D+02  .228750000000D+02  .444089926699D-08 -.134770257050D+01
     .126101076603D-05  .869336479809D-02  .362098217010D-05  .515368217087D+04
     .597600000000D+06  .199303030968D-06  .191671334664D+01 -.335276126862D-07
     .979631632744D+00  .314968750000D+03 -.244312209919D+01 -.816855453880D-08
     .358943522867D-09  .100000000000D+01  .227500000000D+04  .000000000000D+00
     .340000000000D+01  .000000000000D+00  .232830643654D-08  .870000000000D+02
     .590400000000D+06  .400000000000D+01
15 23  8 19 22  0  0.0  .692396424711D-04  .363797880709D-11  .000000000000D+00
     .890000000000D+02 -.891250000000D+02  .535522306654D-08  .191567018804D+01
    -.481680035591D-05  .153024052270D-01  .646524131298D-05  .515377047539D+04
     .597600000000D+06 -.707805156708D-07  .282213955701D+01 -.389292836189D-06
     .933355161235D+00  .242593750000D+03  .122951965676D+01 -.840463580110D-08
    -.234652631367D-09  .100000000000D+01  .227500000000D+04  .000000000000D+00
     .240000000000D+01  .000000000000D+00 -.107102096081D-07  .890000000000D+02
     .590400000000D+06  .400000000000D+01
26 23  8 19 22  0  0.0  .232269521803D-03 -.147792889038D-11  .000000000000D+00
     .890000000000D+02  .412500000000D+02  .545022702383D-08 -.153018316520D+01
     .216439366341D-05  .807391095441D-02  .446848571301D-05  .515373135376D+04
     .597600000000D+06  .782310962677D-07 -.129432675797D+01 -.175088644028D-06
     .932782560469D+00  .279656250000D+03  .463789718886D+00 -.856749972790D-08
     .157149403046D-09  .100000000000D+01  .227500000000D+04  .000000000000D+00
     .240000000000D+01  .000000000000D+00  .698491930962D-08  .890000000000D+02
     .590400000000D+06  .400000000000D+01
17 23  8 19 22  0  0.0  .722944736481D-03  .454747350886D-12  .000000000000D+00
     .510000000000D+02 -.544375000000D+02  .398838041777D-08  .288665589447D+01
    -.261701643467D-05  .136508125579D-01  .830926001072D-05  .515356601143D+04
     .597600000000D+06  .113621354103D-06 -.114429371700D+00 -.558793544769D-08
     .973323926437D+00  .223875000000D+03 -.140491073978D+01 -.760174521463D-08
    -.455018953366D-09  .100000000000D+01  .227500000000D+04  .000000000000D+00
     .240000000000D+01  .000000000000D+00 -.111758708954D-07  .510000000000D+02
     .590400000000D+06  .400000000000D+01
25 23  8 19 22  0  0.0  .463108532131D-03  .216004991671D-11  .000000000000D+00
     .490000000000D+02  .320000000000D+02  .519521640162D-08 -.819372487182D+00
     .167824327946D-05  .110931616509D-01  .417232513428D-05  .515368706322D+04
     .597600000000D+06  .372529029846D-08 -.123704164359D+01  .227242708206D-06
     .952008124537D+00  .293312500000D+03  .105142122439D+01 -.865964642332D-08
    -.228580949885D-10  .100000000000D+01  .227500000000D+04  .000000000000D+00
     .240000000000D+01  .000000000000D+00  .558793544769D-08  .490000000000D+02
     .590400000000D+06  .400000000000D+01
31 23  8 19 22  0  0.0 -.222106929868D-03 -.568434188608D-12  .000000000000D+00
     .123000000000D+03  .304375000000D+02  .462340686917D-08 -.797505917105D+00
     .162422657013D-05  .103893567575D-01  .112634152174D-04  .515361397743D+04
     .597600000000D+06  .197440385818D-06 -.224872477863D+01  .126659870148D-06
     .954493777423D+00  .158312500000D+03  .568300933181D+00 -.806640742682D-08
     .164292557730D-09  .100000000000D+01  .227500000000D+04  .000000000000D+00
     .240000000000D+01  .000000000000D+00 -.130385160446D-07  .123000000000D+03
     .590400000000D+06  .400000000000D+01
